start=new Date('2021-11-10T00:00:00.000Z').valueOf();
sats=[{"REF_FRAME":"TEME","FILE":"3210180","MEAN_MOTION":"15.06386843","MEAN_ANOMALY":"275.1508","PERIOD":"95.593","OBJECT_TYPE":"PAYLOAD","TLE_LINE2":"2 46698  53.0529 139.3771 0001568  84.9660 275.1508 15.06386843 58828","MEAN_MOTION_DDOT":"0.0000000000000","APOAPSIS":"548.340","DECAY_DATE":null,"ARG_OF_PERICENTER":"84.9660","GP_ID":"189360437","TIME_SYSTEM":"UTC","OBJECT_NAME":"STARLINK-1797","RCS_SIZE":"LARGE","MEAN_ELEMENT_THEORY":"SGP4","PERIAPSIS":"546.168","BSTAR":"-0.00005243200000","EPHEMERIS_TYPE":"0","EPOCH":"2021-11-09T14:34:06.137472","CENTER_NAME":"EARTH","TLE_LINE1":"1 46698U 20073AE  21313.60701548 -.00001062  00000-0 -52432-4 0  9997","LAUNCH_DATE":"2020-10-18","RA_OF_ASC_NODE":"139.3771","CLASSIFICATION_TYPE":"U","OBJECT_ID":"2020-073AE","COUNTRY_CODE":"US","ELEMENT_SET_NO":"999","SITE":"AFETR","REV_AT_EPOCH":"5882","INCLINATION":"53.0529","MEAN_MOTION_DOT":"-0.00001062","NORAD_CAT_ID":"46698","ECCENTRICITY":"0.00015680","SEMIMAJOR_AXIS":"6925.389"},{"OBJECT_TYPE":"PAYLOAD","PERIOD":"95.593","TLE_LINE2":"2 46699  53.0551 139.3609 0001562  82.7804 277.3363 15.06386091 58822","FILE":"3210180","REF_FRAME":"TEME","MEAN_ANOMALY":"277.3363","MEAN_MOTION":"15.06386091","DECAY_DATE":null,"ARG_OF_PERICENTER":"82.7804","APOAPSIS":"548.338","MEAN_MOTION_DDOT":"0.0000000000000","GP_ID":"189360687","MEAN_ELEMENT_THEORY":"SGP4","PERIAPSIS":"546.174","RCS_SIZE":"LARGE","TIME_SYSTEM":"UTC","OBJECT_NAME":"STARLINK-1799","CENTER_NAME":"EARTH","EPOCH":"2021-11-09T14:39:24.518880","LAUNCH_DATE":"2020-10-18","TLE_LINE1":"1 46699U 20073AF  21313.61070045 -.00001013  00000-0 -49144-4 0  9992","EPHEMERIS_TYPE":"0","BSTAR":"-0.00004914400000","ELEMENT_SET_NO":"999","CLASSIFICATION_TYPE":"U","RA_OF_ASC_NODE":"139.3609","COUNTRY_CODE":"US","OBJECT_ID":"2020-073AF","REV_AT_EPOCH":"5882","INCLINATION":"53.0551","MEAN_MOTION_DOT":"-0.00001013","SITE":"AFETR","NORAD_CAT_ID":"46699","ECCENTRICITY":"0.00015620","SEMIMAJOR_AXIS":"6925.391"},{"SITE":"AFETR","INCLINATION":"53.0504","REV_AT_EPOCH":"5862","MEAN_MOTION_DOT":"0.00004009","NORAD_CAT_ID":"46700","ECCENTRICITY":"0.00014170","SEMIMAJOR_AXIS":"6925.392","EPHEMERIS_TYPE":"0","BSTAR":"0.00028799000000","EPOCH":"2021-11-09T16:20:57.345792","CENTER_NAME":"EARTH","TLE_LINE1":"1 46700U 20073AG  21313.68121928  .00004009  00000-0  28799-3 0  9997","LAUNCH_DATE":"2020-10-18","RA_OF_ASC_NODE":"154.0439","CLASSIFICATION_TYPE":"U","OBJECT_ID":"2020-073AG","COUNTRY_CODE":"US","ELEMENT_SET_NO":"999","GP_ID":"189361939","TIME_SYSTEM":"UTC","OBJECT_NAME":"STARLINK-1800","RCS_SIZE":"LARGE","MEAN_ELEMENT_THEORY":"SGP4","PERIAPSIS":"546.276","REF_FRAME":"TEME","FILE":"3210180","MEAN_ANOMALY":"288.1338","MEAN_MOTION":"15.06385679","PERIOD":"95.593","OBJECT_TYPE":"PAYLOAD","TLE_LINE2":"2 46700  53.0504 154.0439 0001417  71.9805 288.1338 15.06385679 58629","APOAPSIS":"548.239","MEAN_MOTION_DDOT":"0.0000000000000","DECAY_DATE":null,"ARG_OF_PERICENTER":"71.9805"},{"ARG_OF_PERICENTER":"79.2969","DECAY_DATE":null,"MEAN_MOTION_DDOT":"0.0000000000000","APOAPSIS":"548.122","TLE_LINE2":"2 46701  53.0516 138.8852 0001348  79.2969 280.8172 15.06408059 58844","OBJECT_TYPE":"PAYLOAD","PERIOD":"95.592","MEAN_ANOMALY":"280.8172","MEAN_MOTION":"15.06408059","FILE":"3210180","REF_FRAME":"TEME","PERIAPSIS":"546.255","MEAN_ELEMENT_THEORY":"SGP4","RCS_SIZE":"LARGE","OBJECT_NAME":"STARLINK-1801","TIME_SYSTEM":"UTC","GP_ID":"189362190","ELEMENT_SET_NO":"999","COUNTRY_CODE":"US","OBJECT_ID":"2020-073AH","CLASSIFICATION_TYPE":"U","RA_OF_ASC_NODE":"138.8852","LAUNCH_DATE":"2020-10-18","TLE_LINE1":"1 46701U 20073AH  21313.71391475  .00005584  00000-0  39338-3 0  9998","CENTER_NAME":"EARTH","EPOCH":"2021-11-09T17:08:02.234400","EPHEMERIS_TYPE":"0","BSTAR":"0.00039338000000","SEMIMAJOR_AXIS":"6925.324","NORAD_CAT_ID":"46701","ECCENTRICITY":"0.00013480","MEAN_MOTION_DOT":"0.00005584","REV_AT_EPOCH":"5884","INCLINATION":"53.0516","SITE":"AFETR"},{"ELEMENT_SET_NO":"999","COUNTRY_CODE":"US","OBJECT_ID":"2020-073AJ","CLASSIFICATION_TYPE":"U","RA_OF_ASC_NODE":"118.8465","TLE_LINE1":"1 46702U 20073AJ  21313.72681450  .00001989  00000-0  15239-3 0  9994","LAUNCH_DATE":"2020-10-18","CENTER_NAME":"EARTH","EPOCH":"2021-11-09T17:26:36.772800","BSTAR":"0.00015239000000","EPHEMERIS_TYPE":"0","SEMIMAJOR_AXIS":"6925.355","NORAD_CAT_ID":"46702","ECCENTRICITY":"0.00014740","MEAN_MOTION_DOT":"0.00001989","REV_AT_EPOCH":"5912","INCLINATION":"53.0559","SITE":"AFETR","ARG_OF_PERICENTER":"138.7220","DECAY_DATE":null,"APOAPSIS":"548.240","MEAN_MOTION_DDOT":"0.0000000000000","TLE_LINE2":"2 46702  53.0559 118.8465 0001474 138.7220 221.3880 15.06398054 59122","OBJECT_TYPE":"PAYLOAD","PERIOD":"95.592","MEAN_ANOMALY":"221.3880","MEAN_MOTION":"15.06398054","FILE":"3210180","REF_FRAME":"TEME","PERIAPSIS":"546.199","MEAN_ELEMENT_THEORY":"SGP4","RCS_SIZE":"LARGE","OBJECT_NAME":"STARLINK-1802","TIME_SYSTEM":"UTC","GP_ID":"189360938"},{"SITE":"AFETR","REV_AT_EPOCH":"5883","INCLINATION":"53.0532","MEAN_MOTION_DOT":"0.00000966","NORAD_CAT_ID":"46703","ECCENTRICITY":"0.00015160","SEMIMAJOR_AXIS":"6925.375","BSTAR":"0.00008377100000","EPHEMERIS_TYPE":"0","CENTER_NAME":"EARTH","EPOCH":"2021-11-09T16:36:12.622464","TLE_LINE1":"1 46703U 20073AK  21313.69181276  .00000966  00000-0  83771-4 0  9993","LAUNCH_DATE":"2020-10-18","CLASSIFICATION_TYPE":"U","RA_OF_ASC_NODE":"138.9981","COUNTRY_CODE":"US","OBJECT_ID":"2020-073AK","ELEMENT_SET_NO":"999","GP_ID":"189361188","TIME_SYSTEM":"UTC","OBJECT_NAME":"STARLINK-1803","MEAN_ELEMENT_THEORY":"SGP4","PERIAPSIS":"546.190","RCS_SIZE":"LARGE","FILE":"3210180","REF_FRAME":"TEME","MEAN_MOTION":"15.06391499","MEAN_ANOMALY":"282.0699","OBJECT_TYPE":"PAYLOAD","PERIOD":"95.593","TLE_LINE2":"2 46703  53.0532 138.9981 0001516  78.0460 282.0699 15.06391499 58834","MEAN_MOTION_DDOT":"0.0000000000000","APOAPSIS":"548.289","DECAY_DATE":null,"ARG_OF_PERICENTER":"78.0460"},{"NORAD_CAT_ID":"46704","ECCENTRICITY":"0.00014740","SEMIMAJOR_AXIS":"6925.367","INCLINATION":"53.0554","REV_AT_EPOCH":"5912","MEAN_MOTION_DOT":"0.00002091","SITE":"AFETR","ELEMENT_SET_NO":"999","RA_OF_ASC_NODE":"118.7746","CLASSIFICATION_TYPE":"U","OBJECT_ID":"2020-073AL","COUNTRY_CODE":"US","EPOCH":"2021-11-09T17:42:31.157568","CENTER_NAME":"EARTH","LAUNCH_DATE":"2020-10-18","TLE_LINE1":"1 46704U 20073AL  21313.73786062  .00002091  00000-0  15927-3 0  9991","EPHEMERIS_TYPE":"0","BSTAR":"0.00015927000000","RCS_SIZE":"LARGE","MEAN_ELEMENT_THEORY":"SGP4","PERIAPSIS":"546.211","TIME_SYSTEM":"UTC","OBJECT_NAME":"STARLINK-1804","GP_ID":"189361439","DECAY_DATE":null,"ARG_OF_PERICENTER":"179.9589","APOAPSIS":"548.253","MEAN_MOTION_DDOT":"0.0000000000000","PERIOD":"95.593","OBJECT_TYPE":"PAYLOAD","TLE_LINE2":"2 46704  53.0554 118.7746 0001474 179.9589 180.1401 15.06394001 59124","REF_FRAME":"TEME","FILE":"3210180","MEAN_MOTION":"15.06394001","MEAN_ANOMALY":"180.1401"},{"LAUNCH_DATE":"2020-10-18","TLE_LINE1":"1 46705U 20073AM  21313.68486048 -.00022183  00000-0 -14708-2 0  9998","EPOCH":"2021-11-09T16:26:11.945472","CENTER_NAME":"EARTH","BSTAR":"-0.00147080000000","EPHEMERIS_TYPE":"0","ELEMENT_SET_NO":"999","OBJECT_ID":"2020-073AM","COUNTRY_CODE":"US","RA_OF_ASC_NODE":"154.0178","CLASSIFICATION_TYPE":"U","MEAN_MOTION_DOT":"-0.00022183","INCLINATION":"53.0533","REV_AT_EPOCH":"5862","SITE":"AFETR","SEMIMAJOR_AXIS":"6925.034","NORAD_CAT_ID":"46705","ECCENTRICITY":"0.00021600","TLE_LINE2":"2 46705  53.0533 154.0178 0002160  50.0277 310.0902 15.06502668 58624","PERIOD":"95.586","OBJECT_TYPE":"PAYLOAD","MEAN_MOTION":"15.06502668","MEAN_ANOMALY":"310.0902","REF_FRAME":"TEME","FILE":"3210180","ARG_OF_PERICENTER":"50.0277","DECAY_DATE":null,"APOAPSIS":"548.395","MEAN_MOTION_DDOT":"0.0000000000000","GP_ID":"189361690","RCS_SIZE":"LARGE","PERIAPSIS":"545.403","MEAN_ELEMENT_THEORY":"SGP4","OBJECT_NAME":"STARLINK-1805","TIME_SYSTEM":"UTC"},{"TLE_LINE2":"2 46706  53.0521 138.5406 0001575  85.9164 274.2004 15.06390626 58852","OBJECT_TYPE":"PAYLOAD","PERIOD":"95.593","MEAN_MOTION":"15.06390626","MEAN_ANOMALY":"274.2004","FILE":"3210180","REF_FRAME":"TEME","ARG_OF_PERICENTER":"85.9164","DECAY_DATE":null,"APOAPSIS":"548.333","MEAN_MOTION_DDOT":"0.0000000000000","GP_ID":"189360438","PERIAPSIS":"546.152","MEAN_ELEMENT_THEORY":"SGP4","RCS_SIZE":"LARGE","OBJECT_NAME":"STARLINK-1807","TIME_SYSTEM":"UTC","TLE_LINE1":"1 46706U 20073AN  21313.79133168  .00001921  00000-0  14786-3 0  9995","LAUNCH_DATE":"2020-10-18","CENTER_NAME":"EARTH","EPOCH":"2021-11-09T18:59:31.057152","EPHEMERIS_TYPE":"0","BSTAR":"0.00014786000000","ELEMENT_SET_NO":"999","COUNTRY_CODE":"US","OBJECT_ID":"2020-073AN","CLASSIFICATION_TYPE":"U","RA_OF_ASC_NODE":"138.5406","MEAN_MOTION_DOT":"0.00001921","INCLINATION":"53.0521","REV_AT_EPOCH":"5885","SITE":"AFETR","SEMIMAJOR_AXIS":"6925.377","NORAD_CAT_ID":"46706","ECCENTRICITY":"0.00015750"},{"NORAD_CAT_ID":"46707","ECCENTRICITY":"0.00019650","SEMIMAJOR_AXIS":"6925.357","REV_AT_EPOCH":"5910","INCLINATION":"53.0530","MEAN_MOTION_DOT":"0.00000738","SITE":"AFETR","ELEMENT_SET_NO":"999","RA_OF_ASC_NODE":"119.4841","CLASSIFICATION_TYPE":"U","OBJECT_ID":"2020-073AP","COUNTRY_CODE":"US","EPOCH":"2021-11-09T13:59:35.059488","CENTER_NAME":"EARTH","LAUNCH_DATE":"2020-10-18","TLE_LINE1":"1 46707U 20073AP  21313.58304467  .00000738  00000-0  68482-4 0  9993","EPHEMERIS_TYPE":"0","BSTAR":"0.00006848200000","RCS_SIZE":"LARGE","PERIAPSIS":"545.861","MEAN_ELEMENT_THEORY":"SGP4","TIME_SYSTEM":"UTC","OBJECT_NAME":"STARLINK-1808","GP_ID":"189360688","DECAY_DATE":null,"ARG_OF_PERICENTER":"205.7461","APOAPSIS":"548.583","MEAN_MOTION_DDOT":"0.0000000000000","PERIOD":"95.592","OBJECT_TYPE":"PAYLOAD","TLE_LINE2":"2 46707  53.0530 119.4841 0001965 205.7461 154.3430 15.06397255 59104","REF_FRAME":"TEME","FILE":"3210180","MEAN_MOTION":"15.06397255","MEAN_ANOMALY":"154.3430"}];
